[{"OBJECT_NAME":"STARLINK-30114","OBJECT_ID":"2023-079D","EPOCH":"2026-03-09T22:00:01.999584","MEAN_MOTION":15.20507286,"ECCENTRICITY":0.00017524,"INCLINATION":43,"RA_OF_ASC_NODE":105.3808,"ARG_OF_PERICENTER":290.4549,"MEAN_ANOMALY":126.4056,"EPHEMERIS_TYPE":0,"CLASSIFICATION_TYPE":"U","NORAD_CAT_ID":56826,"ELEMENT_SET_NO":999,"REV_AT_EPOCH":578,"BSTAR":0.0506084,"MEAN_MOTION_DOT":0.01232425,"MEAN_MOTION_DDOT":0},{"OBJECT_NAME":"MONITOR-3 (RS58S)","OBJECT_ID":"2023-091Q","EPOCH":"2026-03-09T23:24:02.583360","MEAN_MOTION":15.25747617,"ECCENTRICITY":0.0013676,"INCLINATION":97.5199,"RA_OF_ASC_NODE":131.7909,"ARG_OF_PERICENTER":91.0881,"MEAN_ANOMALY":269.1924,"EPHEMERIS_TYPE":0,"CLASSIFICATION_TYPE":"U","NORAD_CAT_ID":57180,"ELEMENT_SET_NO":999,"REV_AT_EPOCH":14915,"BSTAR":0.00054974842,"MEAN_MOTION_DOT":0.00014004,"MEAN_MOTION_DDOT":0}]
